[{"OBJECT_NAME":"JILIN-1 06","OBJECT_ID":"2017-074C","EPOCH":"2026-03-09T22:46:57.173376","MEAN_MOTION":15.32444387,"ECCENTRICITY":0.00061285,"INCLINATION":97.4715,"RA_OF_ASC_NODE":171.0354,"ARG_OF_PERICENTER":223.0031,"MEAN_ANOMALY":137.0732,"EPHEMERIS_TYPE":0,"CLASSIFICATION_TYPE":"U","NORAD_CAT_ID":43024,"ELEMENT_SET_NO":999,"REV_AT_EPOCH":45863,"BSTAR":0.00028431628,"MEAN_MOTION_DOT":8.833e-5,"MEAN_MOTION_DDOT":0},{"OBJECT_NAME":"STARLINK-2621","OBJECT_ID":"2021-038T","EPOCH":"2026-03-09T23:14:44.683872","MEAN_MOTION":15.30199654,"ECCENTRICITY":0.00015531,"INCLINATION":53.1618,"RA_OF_ASC_NODE":346.4868,"ARG_OF_PERICENTER":94.9068,"MEAN_ANOMALY":265.211,"EPHEMERIS_TYPE":0,"CLASSIFICATION_TYPE":"U","NORAD_CAT_ID":48370,"ELEMENT_SET_NO":999,"REV_AT_EPOCH":26726,"BSTAR":3.432189e-5,"MEAN_MOTION_DOT":6.57e-6,"MEAN_MOTION_DDOT":0}]
